{
  "type": "FeatureCollection",
  "features": [
    {
      "type": "Feature",
      "properties": {
        "norad_id": 66976,
        "name": "STARLINK-35772",
        "group": "last-30-days",
        "lat": 10.51804509665737,
        "lon": -85.17995987964697,
        "alt_km": 399.27168378604983,
        "timestamp": "2025-12-22T18:58:52.141017+00:00",
        "meta_object_name": "STARLINK-35772",
        "meta_object_id": "2025-288T",
        "meta_epoch": "2025-12-22T06:00:02.000160",
        "meta_mean_motion": 15.5838331,
        "meta_eccentricity": 0.00016497,
        "meta_inclination": 43.0009,
        "meta_ra_of_asc_node": 109.5069,
        "meta_arg_of_pericenter": 269.3877,
        "meta_mean_anomaly": 99.8597,
        "meta_ephemeris_type": 0,
        "meta_classification_type": "U",
        "meta_norad_cat_id": 66976,
        "meta_element_set_no": 999,
        "meta_rev_at_epoch": 336,
        "meta_bstar": -0.035363661,
        "meta_mean_motion_dot": -0.02414271,
        "meta_mean_motion_ddot": 0,
        "tle_line1": "1 66976U 25288T   25356.25002315 -.02414271  00000+0 -35364-1 0  9992",
        "tle_line2": "2 66976  43.0009 109.5069 0001649 269.3877  99.8597 15.58383310  3360"
      },
      "geometry": {
        "type": "Point",
        "coordinates": [
          -85.17995987964697,
          10.51804509665737
        ]
      }
    },
    {
      "type": "Feature",
      "properties": {
        "norad_id": 66977,
        "name": "STARLINK-35770",
        "group": "last-30-days",
        "lat": 41.86350842716553,
        "lon": 179.70815439147114,
        "alt_km": 338.732513439958,
        "timestamp": "2025-12-22T18:58:52.141029+00:00",
        "meta_object_name": "STARLINK-35770",
        "meta_object_id": "2025-288U",
        "meta_epoch": "2025-12-22T06:00:02.000160",
        "meta_mean_motion": 15.75017766,
        "meta_eccentricity": 0.00013312,
        "meta_inclination": 43.0006,
        "meta_ra_of_asc_node": 108.9132,
        "meta_arg_of_pericenter": 259.3422,
        "meta_mean_anomaly": 348.4099,
        "meta_ephemeris_type": 0,
        "meta_classification_type": "U",
        "meta_norad_cat_id": 66977,
        "meta_element_set_no": 999,
        "meta_rev_at_epoch": 336,
        "meta_bstar": 0.00012814682,
        "meta_mean_motion_dot": 0.00019233,
        "meta_mean_motion_ddot": 0,
        "tle_line1": "1 66977U 25288U   25356.25002315  .00019233  00000+0  12815-3 0  9996",
        "tle_line2": "2 66977  43.0006 108.9132 0001331 259.3422 348.4099 15.75017766  3363"
      },
      "geometry": {
        "type": "Point",
        "coordinates": [
          179.70815439147114,
          41.86350842716553
        ]
      }
    },
    {
      "type": "Feature",
      "properties": {
        "norad_id": 66978,
        "name": "STARLINK-35787",
        "group": "last-30-days",
        "lat": 42.69549084508499,
        "lon": -172.45193219160205,
        "alt_km": 338.8421351385914,
        "timestamp": "2025-12-22T18:58:52.141039+00:00",
        "meta_object_name": "STARLINK-35787",
        "meta_object_id": "2025-288V",
        "meta_epoch": "2025-12-22T06:00:02.000160",
        "meta_mean_motion": 15.75139809,
        "meta_eccentricity": 0.00016837,
        "meta_inclination": 43.0005,
        "meta_ra_of_asc_node": 108.8982,
        "meta_arg_of_pericenter": 263.7166,
        "meta_mean_anomaly": 349.7705,
        "meta_ephemeris_type": 0,
        "meta_classification_type": "U",
        "meta_norad_cat_id": 66978,
        "meta_element_set_no": 999,
        "meta_rev_at_epoch": 336,
        "meta_bstar": -0.00056469172,
        "meta_mean_motion_dot": -0.00086715,
        "meta_mean_motion_ddot": 0,
        "tle_line1": "1 66978U 25288V   25356.25002315 -.00086715  00000+0 -56469-3 0  9991",
        "tle_line2": "2 66978  43.0005 108.8982 0001683 263.7166 349.7705 15.75139809  3360"
      },
      "geometry": {
        "type": "Point",
        "coordinates": [
          -172.45193219160205,
          42.69549084508499
        ]
      }
    },
    {
      "type": "Feature",
      "properties": {
        "norad_id": 66979,
        "name": "STARLINK-36107",
        "group": "last-30-days",
        "lat": 42.8418157160158,
        "lon": -170.0093109580664,
        "alt_km": 338.8258150562697,
        "timestamp": "2025-12-22T18:58:52.141052+00:00",
        "meta_object_name": "STARLINK-36107",
        "meta_object_id": "2025-288W",
        "meta_epoch": "2025-12-22T06:00:02.000160",
        "meta_mean_motion": 15.75025789,
        "meta_eccentricity": 0.0001623,
        "meta_inclination": 43.0004,
        "meta_ra_of_asc_node": 108.8936,
        "meta_arg_of_pericenter": 259.3522,
        "meta_mean_anomaly": 356.0688,
        "meta_ephemeris_type": 0,
        "meta_classification_type": "U",
        "meta_norad_cat_id": 66979,
        "meta_element_set_no": 999,
        "meta_rev_at_epoch": 336,
        "meta_bstar": -8.017132e-06,
        "meta_mean_motion_dot": -1.708e-05,
        "meta_mean_motion_ddot": 0,
        "tle_line1": "1 66979U 25288W   25356.25002315 -.00001708  00000+0 -80171-5 0  9990",
        "tle_line2": "2 66979  43.0004 108.8936 0001623 259.3522 356.0688 15.75025789  3362"
      },
      "geometry": {
        "type": "Point",
        "coordinates": [
          -170.0093109580664,
          42.8418157160158
        ]
      }
    },
    {
      "type": "Feature",
      "properties": {
        "norad_id": 66980,
        "name": "STARLINK-36086",
        "group": "last-30-days",
        "lat": 42.9401639449449,
        "lon": -167.40397463483853,
        "alt_km": 338.8116304440455,
        "timestamp": "2025-12-22T18:58:52.141062+00:00",
        "meta_object_name": "STARLINK-36086",
        "meta_object_id": "2025-288X",
        "meta_epoch": "2025-12-22T06:00:02.000160",
        "meta_mean_motion": 15.75028969,
        "meta_eccentricity": 0.00015941,
        "meta_inclination": 43.0005,
        "meta_ra_of_asc_node": 108.8885,
        "meta_arg_of_pericenter": 258.2904,
        "meta_mean_anomaly": 359.0485,
        "meta_ephemeris_type": 0,
        "meta_classification_type": "U",
        "meta_norad_cat_id": 66980,
        "meta_element_set_no": 999,
        "meta_rev_at_epoch": 336,
        "meta_bstar": -7.5167708e-05,
        "meta_mean_motion_dot": -0.00012002,
        "meta_mean_motion_ddot": 0,
        "tle_line1": "1 66980U 25288X   25356.25002315 -.00012002  00000+0 -75168-4 0  9990",
        "tle_line2": "2 66980  43.0005 108.8885 0001594 258.2904 359.0485 15.75028969  3368"
      },
      "geometry": {
        "type": "Point",
        "coordinates": [
          -167.40397463483853,
          42.9401639449449
        ]
      }
    },
    {
      "type": "Feature",
      "properties": {
        "norad_id": 66981,
        "name": "STARLINK-36142",
        "group": "last-30-days",
        "lat": 42.97912169005821,
        "lon": -164.77071339155714,
        "alt_km": 338.8818911470944,
        "timestamp": "2025-12-22T18:58:52.141072+00:00",
        "meta_object_name": "STARLINK-36142",
        "meta_object_id": "2025-288Y",
        "meta_epoch": "2025-12-22T06:00:02.000160",
        "meta_mean_motion": 15.75005692,
        "meta_eccentricity": 0.00018343,
        "meta_inclination": 43.0006,
        "meta_ra_of_asc_node": 108.8837,
        "meta_arg_of_pericenter": 264.1995,
        "meta_mean_anomaly": 355.0613,
        "meta_ephemeris_type": 0,
        "meta_classification_type": "U",
        "meta_norad_cat_id": 66981,
        "meta_element_set_no": 999,
        "meta_rev_at_epoch": 336,
        "meta_bstar": 0.00023768762,
        "meta_mean_motion_dot": 0.00036137,
        "meta_mean_motion_ddot": 0,
        "tle_line1": "1 66981U 25288Y   25356.25002315  .00036137  00000+0  23769-3 0  9993",
        "tle_line2": "2 66981  43.0006 108.8837 0001834 264.1995 355.0613 15.75005692  3367"
      },
      "geometry": {
        "type": "Point",
        "coordinates": [
          -164.77071339155714,
          42.97912169005821
        ]
      }
    },
    {
      "type": "Feature",
      "properties": {
        "norad_id": 66982,
        "name": "STARLINK-36113",
        "group": "last-30-days",
        "lat": 42.95782922241559,
        "lon": -162.166059318444,
        "alt_km": 338.79805361472063,
        "timestamp": "2025-12-22T18:58:52.141084+00:00",
        "meta_object_name": "STARLINK-36113",
        "meta_object_id": "2025-288Z",
        "meta_epoch": "2025-12-22T06:00:02.000160",
        "meta_mean_motion": 15.7503126,
        "meta_eccentricity": 0.00015643,
        "meta_inclination": 43.0005,
        "meta_ra_of_asc_node": 108.8784,
        "meta_arg_of_pericenter": 263.4982,
        "meta_mean_anomaly": 357.6755,
        "meta_ephemeris_type": 0,
        "meta_classification_type": "U",
        "meta_norad_cat_id": 66982,
        "meta_element_set_no": 999,
        "meta_rev_at_epoch": 336,
        "meta_bstar": -0.00010216447,
        "meta_mean_motion_dot": -0.00016135,
        "meta_mean_motion_ddot": 0,
        "tle_line1": "1 66982U 25288Z   25356.25002315 -.00016135  00000+0 -10216-3 0  9995",
        "tle_line2": "2 66982  43.0005 108.8784 0001564 263.4982 357.6755 15.75031260  3361"
      },
      "geometry": {
        "type": "Point",
        "coordinates": [
          -162.166059318444,
          42.95782922241559
        ]
      }
    }
  ]
}